{
  "type": "FeatureCollection",
  "features": [
    {
      "type": "Feature",
      "properties": {
        "norad_id": 66478,
        "name": "STARLINK-35283",
        "group": "last-30-days",
        "lat": 41.16844429266897,
        "lon": -164.14928341039817,
        "alt_km": 409.0142074733585,
        "timestamp": "2025-12-10T05:46:12.574702+00:00",
        "meta_object_name": "STARLINK-35283",
        "meta_object_id": "2025-262Y",
        "meta_epoch": "2025-12-09T16:57:08.842176",
        "meta_mean_motion": 15.50609402,
        "meta_eccentricity": 0.0001509,
        "meta_inclination": 43.001,
        "meta_ra_of_asc_node": 88.7576,
        "meta_arg_of_pericenter": 278.6831,
        "meta_mean_anomaly": 81.3858,
        "meta_ephemeris_type": 0,
        "meta_classification_type": "U",
        "meta_norad_cat_id": 66478,
        "meta_element_set_no": 999,
        "meta_rev_at_epoch": 509,
        "meta_bstar": 0.0021459,
        "meta_mean_motion_dot": 0.00127763,
        "meta_mean_motion_ddot": 0,
        "tle_line1": "1 66478U 25262Y   25343.70635234  .00127763  00000+0  21459-2 0  9993",
        "tle_line2": "2 66478  43.0010  88.7576 0001509 278.6831  81.3858 15.50609402  5091"
      },
      "geometry": {
        "type": "Point",
        "coordinates": [
          -164.14928341039817,
          41.16844429266897
        ]
      }
    },
    {
      "type": "Feature",
      "properties": {
        "norad_id": 66479,
        "name": "STARLINK-35581",
        "group": "last-30-days",
        "lat": 41.96788439670164,
        "lon": -169.18502507722698,
        "alt_km": 408.8426930507185,
        "timestamp": "2025-12-10T05:46:12.574712+00:00",
        "meta_object_name": "STARLINK-35581",
        "meta_object_id": "2025-262Z",
        "meta_epoch": "2025-12-09T16:58:07.905216",
        "meta_mean_motion": 15.50587074,
        "meta_eccentricity": 0.00014,
        "meta_inclination": 43.0008,
        "meta_ra_of_asc_node": 88.7631,
        "meta_arg_of_pericenter": 270.6603,
        "meta_mean_anomaly": 89.4097,
        "meta_ephemeris_type": 0,
        "meta_classification_type": "U",
        "meta_norad_cat_id": 66479,
        "meta_element_set_no": 999,
        "meta_rev_at_epoch": 509,
        "meta_bstar": 0.0023334,
        "meta_mean_motion_dot": 0.00139045,
        "meta_mean_motion_ddot": 0,
        "tle_line1": "1 66479U 25262Z   25343.70703594  .00139045  00000+0  23334-2 0  9999",
        "tle_line2": "2 66479  43.0008  88.7631 0001400 270.6603  89.4097 15.50587074  5094"
      },
      "geometry": {
        "type": "Point",
        "coordinates": [
          -169.18502507722698,
          41.96788439670164
        ]
      }
    },
    {
      "type": "Feature",
      "properties": {
        "norad_id": 66480,
        "name": "STARLINK-35670",
        "group": "last-30-days",
        "lat": 40.6937025499079,
        "lon": -161.7142530526684,
        "alt_km": 409.18985610911113,
        "timestamp": "2025-12-10T05:46:12.574722+00:00",
        "meta_object_name": "STARLINK-35670",
        "meta_object_id": "2025-262AA",
        "meta_epoch": "2025-12-09T16:56:39.028128",
        "meta_mean_motion": 15.50609905,
        "meta_eccentricity": 0.0001525,
        "meta_inclination": 43.0006,
        "meta_ra_of_asc_node": 88.7544,
        "meta_arg_of_pericenter": 283.202,
        "meta_mean_anomaly": 76.867,
        "meta_ephemeris_type": 0,
        "meta_classification_type": "U",
        "meta_norad_cat_id": 66480,
        "meta_element_set_no": 999,
        "meta_rev_at_epoch": 509,
        "meta_bstar": 0.0016582,
        "meta_mean_motion_dot": 0.00098275,
        "meta_mean_motion_ddot": 0,
        "tle_line1": "1 66480U 25262AA  25343.70600727  .00098275  00000+0  16582-2 0  9991",
        "tle_line2": "2 66480  43.0006  88.7544 0001525 283.2020  76.8670 15.50609905  5093"
      },
      "geometry": {
        "type": "Point",
        "coordinates": [
          -161.7142530526684,
          40.6937025499079
        ]
      }
    },
    {
      "type": "Feature",
      "properties": {
        "norad_id": 66481,
        "name": "STARLINK-35698",
        "group": "last-30-days",
        "lat": 40.18027709189978,
        "lon": -159.3673981913765,
        "alt_km": 409.3318150693058,
        "timestamp": "2025-12-10T05:46:12.574735+00:00",
        "meta_object_name": "STARLINK-35698",
        "meta_object_id": "2025-262AB",
        "meta_epoch": "2025-12-09T18:28:54.950016",
        "meta_mean_motion": 15.50604037,
        "meta_eccentricity": 0.0001521,
        "meta_inclination": 43.0001,
        "meta_ra_of_asc_node": 88.3747,
        "meta_arg_of_pericenter": 275.7542,
        "meta_mean_anomaly": 84.3145,
        "meta_ephemeris_type": 0,
        "meta_classification_type": "U",
        "meta_norad_cat_id": 66481,
        "meta_element_set_no": 999,
        "meta_rev_at_epoch": 510,
        "meta_bstar": 0.0015064,
        "meta_mean_motion_dot": 0.00089124,
        "meta_mean_motion_ddot": 0,
        "tle_line1": "1 66481U 25262AB  25343.77008044  .00089124  00000+0  15064-2 0  9990",
        "tle_line2": "2 66481  43.0001  88.3747 0001521 275.7542  84.3145 15.50604037  5105"
      },
      "geometry": {
        "type": "Point",
        "coordinates": [
          -159.3673981913765,
          40.18027709189978
        ]
      }
    },
    {
      "type": "Feature",
      "properties": {
        "norad_id": 66482,
        "name": "STARLINK-35648",
        "group": "last-30-days",
        "lat": 39.602639443764396,
        "lon": -156.98621516385202,
        "alt_km": 409.30196918663023,
        "timestamp": "2025-12-10T05:46:12.574745+00:00",
        "meta_object_name": "STARLINK-35648",
        "meta_object_id": "2025-262AC",
        "meta_epoch": "2025-12-09T18:28:25.260384",
        "meta_mean_motion": 15.50603203,
        "meta_eccentricity": 0.0001397,
        "meta_inclination": 43.0004,
        "meta_ra_of_asc_node": 88.3717,
        "meta_arg_of_pericenter": 267.5657,
        "meta_mean_anomaly": 92.5044,
        "meta_ephemeris_type": 0,
        "meta_classification_type": "U",
        "meta_norad_cat_id": 66482,
        "meta_element_set_no": 999,
        "meta_rev_at_epoch": 494,
        "meta_bstar": 0.0014865,
        "meta_mean_motion_dot": 0.00087927,
        "meta_mean_motion_ddot": 0,
        "tle_line1": "1 66482U 25262AC  25343.76973681  .00087927  00000+0  14865-2 0  9995",
        "tle_line2": "2 66482  43.0004  88.3717 0001397 267.5657  92.5044 15.50603203  4947"
      },
      "geometry": {
        "type": "Point",
        "coordinates": [
          -156.98621516385202,
          39.602639443764396
        ]
      }
    },
    {
      "type": "Feature",
      "properties": {
        "norad_id": 66483,
        "name": "STARLINK-35654",
        "group": "last-30-days",
        "lat": 38.97174010037258,
        "lon": -154.62915615794307,
        "alt_km": 409.4663488760425,
        "timestamp": "2025-12-10T05:46:12.574755+00:00",
        "meta_object_name": "STARLINK-35654",
        "meta_object_id": "2025-262AD",
        "meta_epoch": "2025-12-09T18:27:55.708128",
        "meta_mean_motion": 15.50607552,
        "meta_eccentricity": 0.0001469,
        "meta_inclination": 43.0002,
        "meta_ra_of_asc_node": 88.3686,
        "meta_arg_of_pericenter": 288.036,
        "meta_mean_anomaly": 72.034,
        "meta_ephemeris_type": 0,
        "meta_classification_type": "U",
        "meta_norad_cat_id": 66483,
        "meta_element_set_no": 999,
        "meta_rev_at_epoch": 510,
        "meta_bstar": 0.0016453,
        "meta_mean_motion_dot": 0.00097488,
        "meta_mean_motion_ddot": 0,
        "tle_line1": "1 66483U 25262AD  25343.76939477  .00097488  00000+0  16453-2 0  9999",
        "tle_line2": "2 66483  43.0002  88.3686 0001469 288.0360  72.0340 15.50607552  5102"
      },
      "geometry": {
        "type": "Point",
        "coordinates": [
          -154.62915615794307,
          38.97174010037258
        ]
      }
    },
    {
      "type": "Feature",
      "properties": {
        "norad_id": 66484,
        "name": "STARLINK-35371",
        "group": "last-30-days",
        "lat": 38.30253684951106,
        "lon": -152.3413874101172,
        "alt_km": 409.5011619191664,
        "timestamp": "2025-12-10T05:46:12.574767+00:00",
        "meta_object_name": "STARLINK-35371",
        "meta_object_id": "2025-262AE",
        "meta_epoch": "2025-12-09T18:27:26.135136",
        "meta_mean_motion": 15.50607729,
        "meta_eccentricity": 0.0001341,
        "meta_inclination": 43.0001,
        "meta_ra_of_asc_node": 88.3668,
        "meta_arg_of_pericenter": 287.1323,
        "meta_mean_anomaly": 72.939,
        "meta_ephemeris_type": 0,
        "meta_classification_type": "U",
        "meta_norad_cat_id": 66484,
        "meta_element_set_no": 999,
        "meta_rev_at_epoch": 510,
        "meta_bstar": 0.0015273,
        "meta_mean_motion_dot": 0.00090394,
        "meta_mean_motion_ddot": 0,
        "tle_line1": "1 66484U 25262AE  25343.76905249  .00090394  00000+0  15273-2 0  9998",
        "tle_line2": "2 66484  43.0001  88.3668 0001341 287.1323  72.9390 15.50607729  5100"
      },
      "geometry": {
        "type": "Point",
        "coordinates": [
          -152.3413874101172,
          38.30253684951106
        ]
      }
    }
  ]
}